{
  "type": "FeatureCollection",
  "features": [
    {
      "type": "Feature",
      "properties": {
        "norad_id": 33822,
        "name": "COSMOS 2251 DEB",
        "group": "cosmos-2251-debris",
        "lat": -10.835955130154627,
        "lon": -3.348573918429351,
        "alt_km": 752.9272445672559,
        "timestamp": "2025-12-24T03:53:30.039794+00:00",
        "meta_object_name": "COSMOS 2251 DEB",
        "meta_object_id": "1993-036BP",
        "meta_epoch": "2025-12-22T22:40:58.934784",
        "meta_mean_motion": 14.13119133,
        "meta_eccentricity": 0.0152769,
        "meta_inclination": 74.0676,
        "meta_ra_of_asc_node": 175.6652,
        "meta_arg_of_pericenter": 219.4908,
        "meta_mean_anomaly": 263.5608,
        "meta_ephemeris_type": 0,
        "meta_classification_type": "U",
        "meta_norad_cat_id": 33822,
        "meta_element_set_no": 999,
        "meta_rev_at_epoch": 86198,
        "meta_bstar": 0.0014147,
        "meta_mean_motion_dot": 2.93e-05,
        "meta_mean_motion_ddot": 0,
        "tle_line1": "1 33822U 93036BP  25356.94512656  .00002930  00000+0  14147-2 0  9990",
        "tle_line2": "2 33822  74.0676 175.6652 0152769 219.4908 263.5608 14.13119133861984"
      },
      "geometry": {
        "type": "Point",
        "coordinates": [
          -3.348573918429351,
          -10.835955130154627
        ]
      }
    },
    {
      "type": "Feature",
      "properties": {
        "norad_id": 33823,
        "name": "COSMOS 2251 DEB",
        "group": "cosmos-2251-debris",
        "lat": 27.240181394923432,
        "lon": -59.289985940618685,
        "alt_km": 922.344607105033,
        "timestamp": "2025-12-24T03:53:30.039893+00:00",
        "meta_object_name": "COSMOS 2251 DEB",
        "meta_object_id": "1993-036BQ",
        "meta_epoch": "2025-12-23T10:15:53.723232",
        "meta_mean_motion": 13.98976236,
        "meta_eccentricity": 0.0209453,
        "meta_inclination": 73.8097,
        "meta_ra_of_asc_node": 130.5986,
        "meta_arg_of_pericenter": 254.049,
        "meta_mean_anomaly": 162.2506,
        "meta_ephemeris_type": 0,
        "meta_classification_type": "U",
        "meta_norad_cat_id": 33823,
        "meta_element_set_no": 999,
        "meta_rev_at_epoch": 85759,
        "meta_bstar": 0.00075408,
        "meta_mean_motion_dot": 1.288e-05,
        "meta_mean_motion_ddot": 0,
        "tle_line1": "1 33823U 93036BQ  25357.42770513  .00001288  00000+0  75408-3 0  9996",
        "tle_line2": "2 33823  73.8097 130.5986 0209453 254.0490 162.2506 13.98976236857594"
      },
      "geometry": {
        "type": "Point",
        "coordinates": [
          -59.289985940618685,
          27.240181394923432
        ]
      }
    },
    {
      "type": "Feature",
      "properties": {
        "norad_id": 33825,
        "name": "COSMOS 2251 DEB",
        "group": "cosmos-2251-debris",
        "lat": -15.249766010206095,
        "lon": -169.93104938882365,
        "alt_km": 707.3510446560394,
        "timestamp": "2025-12-24T03:53:30.039906+00:00",
        "meta_object_name": "COSMOS 2251 DEB",
        "meta_object_id": "1993-036BS",
        "meta_epoch": "2025-12-23T04:27:05.680224",
        "meta_mean_motion": 14.69856334,
        "meta_eccentricity": 0.00850451,
        "meta_inclination": 73.9847,
        "meta_ra_of_asc_node": 7.4763,
        "meta_arg_of_pericenter": 332.0797,
        "meta_mean_anomaly": 98.4679,
        "meta_ephemeris_type": 0,
        "meta_classification_type": "U",
        "meta_norad_cat_id": 33825,
        "meta_element_set_no": 999,
        "meta_rev_at_epoch": 89033,
        "meta_bstar": 0.00094141628,
        "meta_mean_motion_dot": 5.92e-05,
        "meta_mean_motion_ddot": 0,
        "tle_line1": "1 33825U 93036BS  25357.18548241  .00005920  00000+0  94142-3 0  9995",
        "tle_line2": "2 33825  73.9847   7.4763 0085045 332.0797  98.4679 14.69856334890336"
      },
      "geometry": {
        "type": "Point",
        "coordinates": [
          -169.93104938882365,
          -15.249766010206095
        ]
      }
    },
    {
      "type": "Feature",
      "properties": {
        "norad_id": 33826,
        "name": "COSMOS 2251 DEB",
        "group": "cosmos-2251-debris",
        "lat": 59.690150294856004,
        "lon": 57.66095487062077,
        "alt_km": 655.3779419124749,
        "timestamp": "2025-12-24T03:53:30.039917+00:00",
        "meta_object_name": "COSMOS 2251 DEB",
        "meta_object_id": "1993-036BT",
        "meta_epoch": "2025-12-23T20:08:13.945056",
        "meta_mean_motion": 14.51768394,
        "meta_eccentricity": 0.0082518,
        "meta_inclination": 74.0638,
        "meta_ra_of_asc_node": 29.0083,
        "meta_arg_of_pericenter": 69.6163,
        "meta_mean_anomaly": 106.4258,
        "meta_ephemeris_type": 0,
        "meta_classification_type": "U",
        "meta_norad_cat_id": 33826,
        "meta_element_set_no": 999,
        "meta_rev_at_epoch": 87930,
        "meta_bstar": 0.00043756,
        "meta_mean_motion_dot": 1.81e-05,
        "meta_mean_motion_ddot": 0,
        "tle_line1": "1 33826U 93036BT  25357.83905029  .00001810  00000+0  43756-3 0  9998",
        "tle_line2": "2 33826  74.0638  29.0083 0082518  69.6163 106.4258 14.51768394879300"
      },
      "geometry": {
        "type": "Point",
        "coordinates": [
          57.66095487062077,
          59.690150294856004
        ]
      }
    },
    {
      "type": "Feature",
      "properties": {
        "norad_id": 33828,
        "name": "COSMOS 2251 DEB",
        "group": "cosmos-2251-debris",
        "lat": 16.272650032272605,
        "lon": -138.35975975786914,
        "alt_km": 744.0170149580508,
        "timestamp": "2025-12-24T03:53:30.039928+00:00",
        "meta_object_name": "COSMOS 2251 DEB",
        "meta_object_id": "1993-036BV",
        "meta_epoch": "2025-12-23T01:57:47.157984",
        "meta_mean_motion": 14.44361361,
        "meta_eccentricity": 0.00295256,
        "meta_inclination": 74.0452,
        "meta_ra_of_asc_node": 218.8585,
        "meta_arg_of_pericenter": 290.201,
        "meta_mean_anomaly": 231.2504,
        "meta_ephemeris_type": 0,
        "meta_classification_type": "U",
        "meta_norad_cat_id": 33828,
        "meta_element_set_no": 999,
        "meta_rev_at_epoch": 88462,
        "meta_bstar": 0.0003649363,
        "meta_mean_motion_dot": 1.236e-05,
        "meta_mean_motion_ddot": 0,
        "tle_line1": "1 33828U 93036BV  25357.08179581  .00001236  00000+0  36494-3 0  9996",
        "tle_line2": "2 33828  74.0452 218.8585 0029525 290.2010 231.2504 14.44361361884620"
      },
      "geometry": {
        "type": "Point",
        "coordinates": [
          -138.35975975786914,
          16.272650032272605
        ]
      }
    },
    {
      "type": "Feature",
      "properties": {
        "norad_id": 33830,
        "name": "COSMOS 2251 DEB",
        "group": "cosmos-2251-debris",
        "lat": 27.399343891041134,
        "lon": 19.434377611566127,
        "alt_km": 667.1434732540101,
        "timestamp": "2025-12-24T03:53:30.039938+00:00",
        "meta_object_name": "COSMOS 2251 DEB",
        "meta_object_id": "1993-036BX",
        "meta_epoch": "2025-12-23T01:56:27.237984",
        "meta_mean_motion": 14.77001817,
        "meta_eccentricity": 0.00427101,
        "meta_inclination": 74.0307,
        "meta_ra_of_asc_node": 210.0899,
        "meta_arg_of_pericenter": 328.0382,
        "meta_mean_anomaly": 196.287,
        "meta_ephemeris_type": 0,
        "meta_classification_type": "U",
        "meta_norad_cat_id": 33830,
        "meta_element_set_no": 999,
        "meta_rev_at_epoch": 89624,
        "meta_bstar": 0.00077981717,
        "meta_mean_motion_dot": 5.55e-05,
        "meta_mean_motion_ddot": 0,
        "tle_line1": "1 33830U 93036BX  25357.08087081  .00005550  00000+0  77982-3 0  9992",
        "tle_line2": "2 33830  74.0307 210.0899 0042710 328.0382 196.2870 14.77001817896247"
      },
      "geometry": {
        "type": "Point",
        "coordinates": [
          19.434377611566127,
          27.399343891041134
        ]
      }
    },
    {
      "type": "Feature",
      "properties": {
        "norad_id": 33832,
        "name": "COSMOS 2251 DEB",
        "group": "cosmos-2251-debris",
        "lat": -67.70628937349927,
        "lon": 52.40017080990909,
        "alt_km": 683.949568614561,
        "timestamp": "2025-12-24T03:53:30.039949+00:00",
        "meta_object_name": "COSMOS 2251 DEB",
        "meta_object_id": "1993-036BZ",
        "meta_epoch": "2025-12-22T23:19:45.493248",
        "meta_mean_motion": 14.607594,
        "meta_eccentricity": 0.00241787,
        "meta_inclination": 74.0523,
        "meta_ra_of_asc_node": 190.4496,
        "meta_arg_of_pericenter": 219.5402,
        "meta_mean_anomaly": 258.6119,
        "meta_ephemeris_type": 0,
        "meta_classification_type": "U",
        "meta_norad_cat_id": 33832,
        "meta_element_set_no": 999,
        "meta_rev_at_epoch": 88574,
        "meta_bstar": 0.0014009203,
        "meta_mean_motion_dot": 6.841e-05,
        "meta_mean_motion_ddot": 0,
        "tle_line1": "1 33832U 93036BZ  25356.97205432  .00006841  00000+0  14009-2 0  9997",
        "tle_line2": "2 33832  74.0523 190.4496 0024178 219.5402 258.6119 14.60759400885740"
      },
      "geometry": {
        "type": "Point",
        "coordinates": [
          52.40017080990909,
          -67.70628937349927
        ]
      }
    }
  ]
}